satname,norad_id,inclination_deg,eccentricity,mean_motion_rev_per_day,perigee_km,apogee_km,l1,l2
STARLINK-1413,45689,53.055,0.0001216,15.06387289,546.4083884745987,548.0926427183913,1 45689U 20035AJ  25276.37892399  .00009511  00000+0  65672-3 0  9998,2 45689  53.0550  42.8104 0001216  73.7339 286.3783 15.06387289295072
STARLINK-1417,45693,53.0556,6.83e-05,15.06379242,546.8021732973311,547.748184600975,1 45693U 20035AN  25276.64063864 -.00003316  00000+0 -20394-3 0  9991,2 45693  53.0556  41.6414 0000683  63.6497 296.4562 15.06379242295194
STARLINK-1420,45695,53.0539,0.0001239,15.06412831,546.3141872364349,548.0302788643849,1 45695U 20035AQ  25276.57517162  .00005274  00000+0  37253-3 0  9995,2 45695  53.0539  21.9232 0001239  98.2989 261.8141 15.06412831295476
STARLINK-1422,45696,53.0544,0.0001167,15.06426277,546.3228451101395,547.9392026669148,1 45696U 20035AR  25276.65168582  .00012435  00000+0  85163-3 0  9993,2 45696  53.0544  41.5912 0001167  87.1152 272.9971 15.06426277295197
STARLINK-1351,45697,53.0543,0.0001358,15.0641252,546.232729083963,548.1136433305373,1 45697U 20035AS  25276.49503753  .00014091  00000+0  96264-3 0  9993,2 45697  53.0543  22.2930 0001358 101.6404 258.4738 15.06412520295463
STARLINK-1398,45699,53.0535,0.0002033,15.44737098,430.7661357105544,433.53519867603427,1 45699U 20035AU  25276.61407548  .00046297  00000+0  97820-3 0  9996,2 45699  53.0535 349.5378 0002033 215.2929 144.7942 15.44737098295930
STARLINK-1400,45700,53.0549,0.0001249,15.06468796,546.1357664300904,547.8656658315804,1 45700U 20035AV  25276.60191193  .00041615  00000+0  27910-2 0  9995,2 45700  53.0549  21.8145 0001249  68.0901 292.0221 15.06468796295472
STARLINK-1403,45701,53.0562,0.0001113,15.06405791,546.4230200951042,547.9645987332797,1 45701U 20035AW  25276.29967164  .00001750  00000+0  13630-3 0  9991,2 45701  53.0562  23.1701 0001113  88.5940 271.5176 15.06405791295423
STARLINK-1407,45703,53.0431,0.0009137,15.36160316,451.23050717212664,463.721906746523,1 45703U 20035AY  25276.48912136  .00036401  00000+0  10229-2 0  9994,2 45703  53.0431 347.3080 0009137 295.0002  65.0050 15.36160316295958
STARLINK-1411,45706,53.057,0.0001783,15.3233152,467.63729430700005,470.07893276448704,1 45706U 20035BB  25276.66670139  .00191189  00000+0  58987-2 0  9999,2 45706  53.0570  13.2009 0001783  31.1873   8.2026 15.32331520  5852
STARLINK-1423,45710,53.0546,0.0001367,15.06426634,546.18324577767,548.0766137562696,1 45710U 20035BF  25276.59087303  .00014009  00000+0  95681-3 0  9999,2 45710  53.0546  21.8660 0001367  81.5492 278.5652 15.06426634295470
STARLINK-1433,45711,53.0549,0.0001598,15.06429293,546.0151242139264,548.2284369201961,1 45711U 20035BG  25276.57244092  .00019787  00000+0  13425-2 0  9991,2 45711  53.0549  21.9450 0001598  89.4570 270.6602 15.06429293295463
STARLINK-1434,45712,53.0515,3.95e-05,15.1305896,526.6049421414937,527.1504383020201,1 45712U 20035BH  25276.54647940  .00062187  00000+0  34629-2 0  9999,2 45712  53.0515  19.7377 0000395 309.8688  50.2269 15.13058960295506
STARLINK-1465,45731,53.0528,0.0001035,15.06392266,546.5184856067117,547.9520376648707,1 45731U 20038B   25276.07484521  .00003882  00000+0  27943-3 0  9994,2 45731  53.0528 224.1779 0001035  95.6497 264.4610 15.06392266292439
STARLINK-1471,45735,53.0502,0.0003876,15.39452026,445.08292793738747,450.37433897644314,1 45735U 20038F   25276.13116160  .00032650  00000+0  82709-3 0  9992,2 45735  53.0502 170.9714 0003876  99.2581 260.8861 15.39452026293190
STARLINK-1474,45738,53.0376,0.0005562,15.62358268,377.0876985806417,384.6063924328628,1 45738U 20038J   25276.61046788  .00084122  00000+0  92869-3 0  9995,2 45738  53.0376 130.9826 0005562 163.9591 196.1600 15.62358268293793
STARLINK-1475,45739,53.0529,0.000553,15.64160878,371.9182949345377,379.38798683035384,1 45739U 20038K   25276.66670139  .00228305  00000+0  22983-2 0  9996,2 45739  53.0529  98.3939 0005530 140.5662 296.5532 15.64160878  5858
STARLINK-1480,45741,53.0529,0.0001638,15.06391843,546.1021818924519,548.3709342700786,1 45741U 20038M   25276.58719747  .00013557  00000+0  92746-3 0  9995,2 45741  53.0529 221.8813 0001638 101.2793 258.8380 15.06391843292527
STARLINK-1500,45744,53.0385,0.000546,15.26091797,483.76028944468726,491.2575748025665,1 45744U 20038Q   25276.22009990  .00039610  00000+0  15207-2 0  9995,2 45744  53.0385 206.4103 0005460 107.0123 253.1473 15.26091797292707
STARLINK-1504,45746,53.0284,0.0006566,15.36116341,453.1183142195241,462.09501279844335,1 45746U 20038S   25276.30809226  .00040782  00000+0  11464-2 0  9999,2 45746  53.0284 172.9337 0006566  79.9243 280.2500 15.36116341293179
STARLINK-1506,45747,53.05,0.0004994,15.20239821,501.67912330465515,508.5541170204742,1 45747U 20038T   25276.45977954  .00085415  00000+0  38575-2 0  9994,2 45747  53.0500 206.5854 0004994 129.3508 230.7930 15.20239821292725
STARLINK-1464,45751,53.0537,0.0001306,15.06384302,546.355213660001,548.1641272703264,1 45751U 20038X   25276.19095888 -.00001676  00000+0 -93664-4 0  9998,2 45751  53.0537 203.6554 0001306  87.5999 272.5139 15.06384302292744
STARLINK-1477,45754,53.0528,0.0001361,15.0639045,546.2982835451385,548.183371389774,1 45754U 20038AA  25276.07299758  .00019216  00000+0  13057-2 0  9993,2 45754  53.0528 204.1861 0001361  91.8068 268.3077 15.06390450292723
STARLINK-1478,45755,53.0545,0.0001499,15.06386537,546.2147044674803,548.2909363356375,1 45755U 20038AB  25276.22412666 -.00000161  00000+0  80912-5 0  9993,2 45755  53.0545 203.5093 0001499  91.6815 268.4346 15.06386537292735
STARLINK-1484,45756,53.0161,0.0004527,15.55346673,398.07609993053484,404.2140619266074,1 45756U 20038AC  25276.54809597  .00075049  00000+0  10820-2 0  9996,2 45756  53.0161 118.0430 0004527 141.7136 218.4196 15.55346673293968
STARLINK-1493,45759,53.0523,0.000134,15.0639966,546.2846031431072,548.140596835904,1 45759U 20038AF  25276.21306670  .00032155  00000+0  21678-2 0  9991,2 45759  53.0523 203.5584 0001340 104.1141 255.9997 15.06399660292731
STARLINK-1494,45760,53.0537,0.0001263,15.43478489,434.9917963414928,436.71301006474187,1 45760U 20038AG  25276.66670139  .00397607  00000+0  83054-2 0  9998,2 45760  53.0537 195.0975 0001263  99.2918 240.7106 15.43478489  5843
STARLINK-1502,45764,53.0523,0.0001308,15.06386253,546.3478497313981,548.1595319361195,1 45764U 20038AL  25276.17989781  .00005127  00000+0  36295-3 0  9993,2 45764  53.0523 203.7112 0001308  88.2358 271.8781 15.06386253292745
